{"type": "FeatureCollection", "features": [{"type": "Feature", "geometry": {"type": "LineString", "coordinates": [[-2.562433, 51.505336], [-2.562226, 51.505685], [-2.562097, 51.50591], [-2.561892, 51.506317], [-2.561717, 51.506767], [-2.561614, 51.507068], [-2.561505, 51.507466], [-2.561469, 51.507701], [-2.561437, 51.507862], [-2.561405, 51.50813], [-2.561374, 51.508416], [-2.561349, 51.508783], [-2.561336, 51.508979], [-2.561323, 51.509101], [-2.561259, 51.509675], [-2.561289, 51.510398], [-2.561335, 51.510824], [-2.561368, 51.511134], [-2.561453, 51.511582], [-2.561614, 51.512043], [-2.561806, 51.512438], [-2.562071, 51.512868], [-2.562434, 51.513339], [-2.562946, 51.513878], [-2.563497, 51.514348], [-2.564027, 51.514726], [-2.564315, 51.514903], [-2.564635, 51.515101], [-2.565215, 51.515409], [-2.56564, 51.515606], [-2.56602, 51.515765], [-2.566537, 51.515961], [-2.566975, 51.516107], [-2.567266, 51.516194], [-2.567575, 51.516283], [-2.567879, 51.51636], [-2.568213, 51.51644], [-2.568536, 51.51651], [-2.568851, 51.516573], [-2.569359, 51.516653], [-2.570721, 51.516796], [-2.571006, 51.516821], [-2.572009, 51.516888], [-2.573243, 51.516998], [-2.577296, 51.517341], [-2.578688, 51.517451], [-2.579791, 51.517495]]}, "properties": {"alignment_type": "existing_rail", "timing_points": ["FILTNEW", "FILTNWJ", "NRHFILT"], "length_m": 2266.1, "osm_railway_m": {"rail": 2266.1}, "source": "OSM ways via `lab scenario draw-rail henbury_extension.draw.yaml`; extract 2026-09-26"}}, {"type": "Feature", "geometry": {"type": "LineString", "coordinates": [[-2.579791, 51.517495], [-2.581384, 51.517525], [-2.582561, 51.517526], [-2.584877, 51.517461], [-2.585944, 51.5174], [-2.587039, 51.517326], [-2.588014, 51.517227], [-2.58894, 51.517098], [-2.590226, 51.516925], [-2.591179, 51.516777], [-2.592753, 51.516464], [-2.596487, 51.515602], [-2.597235, 51.515419], [-2.598749, 51.515053], [-2.599892, 51.514771], [-2.601245, 51.514445], [-2.60259, 51.514163], [-2.603754, 51.513963], [-2.604764, 51.513821], [-2.60578, 51.513711], [-2.606576, 51.513645], [-2.607779, 51.513574], [-2.608661, 51.513546], [-2.610037, 51.513548], [-2.610772, 51.513571], [-2.611492, 51.513606], [-2.612648, 51.513694], [-2.613753, 51.513811], [-2.614881, 51.513966], [-2.615846, 51.514128], [-2.616942, 51.514326], [-2.618271, 51.514565], [-2.619102, 51.514704], [-2.61966, 51.514783], [-2.620203, 51.514847], [-2.621359, 51.514947], [-2.622017, 51.514984], [-2.622781, 51.515011], [-2.623639, 51.515019], [-2.624169, 51.515001], [-2.624747, 51.514975]]}, "properties": {"alignment_type": "existing_rail", "timing_points": ["NRHFILT", "HENBURY"], "length_m": 3198.7, "osm_railway_m": {"rail": 3198.7}, "source": "OSM ways via `lab scenario draw-rail henbury_extension.draw.yaml`; extract 2026-09-26"}}]}