{"type": "FeatureCollection", "features": [{"type": "Feature", "geometry": {"type": "LineString", "coordinates": [[-2.756797, 51.483575], [-2.754161, 51.48301], [-2.742187, 51.480441], [-2.741638, 51.480325], [-2.733627, 51.478589], [-2.732457, 51.478369], [-2.731606, 51.478238], [-2.730859, 51.478142], [-2.73, 51.478041], [-2.729056, 51.477948], [-2.728187, 51.477888], [-2.727579, 51.477878], [-2.726944, 51.477878], [-2.726455, 51.477879], [-2.725992, 51.477885], [-2.725127, 51.477932], [-2.723494, 51.478072], [-2.721236, 51.478303], [-2.720334, 51.478436], [-2.719822, 51.478515], [-2.719368, 51.478616], [-2.718209, 51.478883], [-2.713238, 51.480079], [-2.712476, 51.480275], [-2.710247, 51.480826], [-2.708204, 51.481314], [-2.70795, 51.481371], [-2.706472, 51.481699], [-2.704862, 51.48206], [-2.704087, 51.482204], [-2.703862, 51.482236], [-2.703312, 51.482315], [-2.701191, 51.482621], [-2.700997, 51.482647], [-2.698619, 51.482986], [-2.69617, 51.483371], [-2.695851, 51.483414], [-2.695073, 51.483483], [-2.694551, 51.483501], [-2.693987, 51.483494], [-2.693427, 51.483479], [-2.692827, 51.483439], [-2.692407, 51.483397], [-2.692055, 51.483353], [-2.691788, 51.483296], [-2.691316, 51.483194], [-2.691107, 51.483148], [-2.690819, 51.483077], [-2.690612, 51.48302], [-2.690224, 51.482891], [-2.689771, 51.482724], [-2.689332, 51.482535], [-2.688874, 51.482324], [-2.688496, 51.482131], [-2.688062, 51.481888], [-2.68766, 51.481644], [-2.686829, 51.481134]]}, "properties": {"alignment_type": "existing_rail", "timing_points": ["PRTSHD", "PILL"], "length_m": 5133.3, "osm_railway_m": {"construction": 4689.0, "rail": 444.4}, "source": "OSM ways via `lab scenario draw-rail portishead.draw.yaml`; extract 2026-09-26"}}, {"type": "Feature", "geometry": {"type": "LineString", "coordinates": [[-2.686829, 51.481134], [-2.686547, 51.480954], [-2.686276, 51.480789], [-2.686144, 51.48072], [-2.686013, 51.480654], [-2.685546, 51.480434], [-2.685122, 51.480237], [-2.684765, 51.480065], [-2.684543, 51.479936], [-2.684229, 51.479761], [-2.683857, 51.479524], [-2.683253, 51.479079], [-2.68288, 51.478815], [-2.682389, 51.478492], [-2.681906, 51.478218], [-2.681659, 51.478101], [-2.681345, 51.477968], [-2.68103, 51.477859], [-2.680949, 51.477827], [-2.680769, 51.477769], [-2.68061, 51.477716], [-2.680394, 51.477661], [-2.680155, 51.477604], [-2.679847, 51.47754], [-2.67963, 51.477508], [-2.676856, 51.47717], [-2.675322, 51.476965], [-2.673079, 51.4767], [-2.672848, 51.476684], [-2.672607, 51.476666], [-2.672338, 51.476655], [-2.672087, 51.476637], [-2.671653, 51.476647], [-2.671368, 51.47667], [-2.671041, 51.476717], [-2.670724, 51.476771], [-2.670151, 51.476894], [-2.669801, 51.476985], [-2.669421, 51.477122], [-2.668937, 51.477309], [-2.668707, 51.477415], [-2.668535, 51.477502], [-2.668342, 51.477613], [-2.668216, 51.477699], [-2.667044, 51.478546], [-2.66631, 51.47907], [-2.666052, 51.479236], [-2.665821, 51.479367], [-2.665508, 51.479523], [-2.66488, 51.479825], [-2.664614, 51.479941], [-2.664263, 51.480059], [-2.663268, 51.480349], [-2.662838, 51.480446], [-2.662337, 51.480539], [-2.661737, 51.480622], [-2.661134, 51.480689], [-2.660848, 51.48071], [-2.660356, 51.480718], [-2.660017, 51.48072], [-2.659575, 51.480716], [-2.659319, 51.480696], [-2.658937, 51.480662], [-2.658355, 51.480592], [-2.65808, 51.480543], [-2.65765, 51.480459], [-2.657047, 51.480327], [-2.656495, 51.480179], [-2.655966, 51.48001], [-2.655645, 51.479884], [-2.655339, 51.479746], [-2.654996, 51.479591], [-2.654727, 51.479458], [-2.65433, 51.479216], [-2.654031, 51.479016], [-2.653621, 51.47871], [-2.653418, 51.478532], [-2.653228, 51.478347], [-2.652845, 51.477912], [-2.652526, 51.477463], [-2.652205, 51.476901], [-2.652083, 51.476588], [-2.652024, 51.476272], [-2.651946, 51.475611], [-2.651922, 51.47523], [-2.651885, 51.474946], [-2.65184, 51.474626], [-2.651757, 51.47433], [-2.651647, 51.474072], [-2.65137, 51.473625], [-2.651152, 51.47339], [-2.650988, 51.473212], [-2.650634, 51.472912], [-2.650408, 51.472746], [-2.650048, 51.472529], [-2.649581, 51.472282], [-2.649204, 51.472103], [-2.648939, 51.472007], [-2.64846, 51.471806], [-2.648005, 51.471566], [-2.647488, 51.47126], [-2.646634, 51.47066], [-2.646418, 51.470531], [-2.646093, 51.470382], [-2.645662, 51.470218], [-2.643481, 51.469547], [-2.639924, 51.468559], [-2.63955, 51.468476], [-2.639022, 51.468382], [-2.638824, 51.468355], [-2.637815, 51.468205], [-2.637541, 51.468156], [-2.637309, 51.468103], [-2.636862, 51.467984], [-2.636395, 51.467837], [-2.635949, 51.467677], [-2.635786, 51.467595], [-2.635534, 51.467465], [-2.635298, 51.467338], [-2.63497, 51.467106], [-2.634517, 51.466725], [-2.634275, 51.466492], [-2.634123, 51.466313], [-2.633976, 51.466091], [-2.633929, 51.466008], [-2.633844, 51.465841], [-2.63355, 51.46503], [-2.633317, 51.464255], [-2.633082, 51.463527], [-2.632948, 51.463156], [-2.632878, 51.463002], [-2.63278, 51.462812], [-2.632717, 51.462706], [-2.632599, 51.462561], [-2.632396, 51.462296], [-2.632213, 51.462028], [-2.632076, 51.461777], [-2.632009, 51.461607], [-2.631973, 51.46148], [-2.631921, 51.461293], [-2.631857, 51.461055], [-2.631835, 51.460697], [-2.631834, 51.460468], [-2.631876, 51.460266], [-2.631989, 51.459888], [-2.63222, 51.459188], [-2.632242, 51.45888], [-2.632255, 51.458644], [-2.632234, 51.458445], [-2.632183, 51.458187], [-2.632096, 51.457929], [-2.631958, 51.457645], [-2.631886, 51.457508], [-2.631762, 51.457327], [-2.631501, 51.457018], [-2.631417, 51.456934], [-2.630982, 51.456564], [-2.630369, 51.456118], [-2.630248, 51.456035], [-2.630153, 51.455984], [-2.630005, 51.455891], [-2.629882, 51.455815], [-2.629751, 51.455722], [-2.629571, 51.455588], [-2.629267, 51.455354], [-2.629075, 51.455174], [-2.628912, 51.454974], [-2.628722, 51.454741], [-2.628591, 51.45454], [-2.628474, 51.454346], [-2.628407, 51.454211], [-2.628356, 51.454085], [-2.628303, 51.453907], [-2.628259, 51.453751], [-2.628184, 51.453373], [-2.628115, 51.452931], [-2.628069, 51.452738], [-2.628004, 51.452551], [-2.627891, 51.452306], [-2.62774, 51.452036], [-2.627047, 51.45098], [-2.62689, 51.450709], [-2.626762, 51.450456], [-2.626426, 51.449714], [-2.626331, 51.449469], [-2.626187, 51.449008], [-2.625894, 51.447835], [-2.625832, 51.447502], [-2.625779, 51.447143], [-2.625737, 51.446776], [-2.625716, 51.446363], [-2.625784, 51.445789], [-2.625902, 51.445233], [-2.626036, 51.444422], [-2.625963, 51.443209], [-2.625838, 51.442472], [-2.625771, 51.44224], [-2.625644, 51.441918], [-2.625532, 51.441592], [-2.625147, 51.440783], [-2.624644, 51.440046], [-2.624097, 51.439466], [-2.623603, 51.438906], [-2.623457, 51.438726], [-2.62331, 51.438515], [-2.6232, 51.438348], [-2.623078, 51.43815], [-2.62295, 51.437892], [-2.622764, 51.437448], [-2.62267, 51.437226], [-2.62251, 51.436729], [-2.622308, 51.436199], [-2.622127, 51.43566], [-2.621959, 51.43511], [-2.621831, 51.434771], [-2.62168, 51.434433], [-2.621355, 51.433933], [-2.621275, 51.433835], [-2.621154, 51.433722], [-2.620973, 51.433533], [-2.620852, 51.433419], [-2.620511, 51.433129], [-2.620175, 51.432885], [-2.619958, 51.432742], [-2.619704, 51.432597], [-2.619523, 51.432493], [-2.619325, 51.432396], [-2.618928, 51.432214], [-2.618416, 51.432023], [-2.617884, 51.431862], [-2.617352, 51.431732], [-2.616816, 51.431631], [-2.616173, 51.431546], [-2.615532, 51.431493], [-2.615101, 51.431472], [-2.61467, 51.431472], [-2.614196, 51.431504], [-2.613976, 51.431522], [-2.613722, 51.431554], [-2.613408, 51.431597], [-2.612995, 51.431668], [-2.612565, 51.431762], [-2.612265, 51.431863], [-2.61204, 51.431939], [-2.611495, 51.432109], [-2.610897, 51.432294], [-2.610504, 51.432426], [-2.609629, 51.432716], [-2.608624, 51.433077], [-2.608456, 51.433137], [-2.608069, 51.433276]]}, "properties": {"alignment_type": "existing_rail", "timing_points": ["PILL", "PARSNST"], "length_m": 9607.4, "osm_railway_m": {"rail": 9607.4}, "source": "OSM ways via `lab scenario draw-rail portishead.draw.yaml`; extract 2026-09-26"}}, {"type": "Feature", "geometry": {"type": "LineString", "coordinates": [[-2.608069, 51.433276], [-2.607553, 51.433394], [-2.607177, 51.433544], [-2.606905, 51.433665], [-2.606387, 51.43389], [-2.605905, 51.4341], [-2.605016, 51.434497], [-2.604201, 51.434891], [-2.603783, 51.435102], [-2.603416, 51.4353], [-2.602595, 51.435774], [-2.602253, 51.435976], [-2.601078, 51.43669], [-2.600486, 51.437051], [-2.599873, 51.437393], [-2.599687, 51.437504], [-2.598331, 51.438297], [-2.597836, 51.438577], [-2.597386, 51.438831], [-2.596936, 51.439084], [-2.595934, 51.43962], [-2.59561, 51.439783], [-2.595023, 51.440054], [-2.594698, 51.440199]]}, "properties": {"alignment_type": "existing_rail", "timing_points": ["PARSNST", "BDMNSTR"], "length_m": 1172.4, "osm_railway_m": {"rail": 1172.4}, "source": "OSM ways via `lab scenario draw-rail portishead.draw.yaml`; extract 2026-09-26"}}, {"type": "Feature", "geometry": {"type": "LineString", "coordinates": [[-2.594698, 51.440199], [-2.594166, 51.440415], [-2.593634, 51.440628], [-2.593021, 51.440875], [-2.592824, 51.440954], [-2.592034, 51.441265], [-2.591199, 51.441588], [-2.590517, 51.441842], [-2.590367, 51.441898], [-2.589782, 51.442115], [-2.589235, 51.442319], [-2.588619, 51.442537], [-2.588055, 51.442736], [-2.587186, 51.443021], [-2.586302, 51.443261], [-2.58539, 51.443466], [-2.584858, 51.443607], [-2.584829, 51.443616], [-2.584478, 51.443701], [-2.584272, 51.443759], [-2.583744, 51.443921], [-2.58328, 51.444068], [-2.58267, 51.444304], [-2.582164, 51.444514], [-2.581663, 51.444734], [-2.581201, 51.444962], [-2.580964, 51.445106], [-2.580817, 51.445204], [-2.580662, 51.445318], [-2.580452, 51.445518], [-2.580282, 51.445742], [-2.58021, 51.445855], [-2.580158, 51.445967], [-2.580075, 51.446129], [-2.580026, 51.446259], [-2.579993, 51.446389], [-2.579961, 51.446563], [-2.579971, 51.446808], [-2.58, 51.446974], [-2.580046, 51.447129], [-2.580109, 51.447259], [-2.580222, 51.447459], [-2.58036, 51.44771], [-2.580505, 51.447952], [-2.580602, 51.448106], [-2.580681, 51.448298], [-2.580716, 51.448413], [-2.580744, 51.448569], [-2.580758, 51.448774], [-2.580753, 51.44894], [-2.580752, 51.448972]]}, "properties": {"alignment_type": "existing_rail", "timing_points": ["BDMNSTR", "BRSTLWJ", "BRSTLTM"], "length_m": 1515.0, "osm_railway_m": {"rail": 1515.0}, "source": "OSM ways via `lab scenario draw-rail portishead.draw.yaml`; extract 2026-09-26"}}]}