{
 "type": "FeatureCollection",
 "features": [
  {
   "type": "Feature",
   "geometry": {
    "type": "Point",
    "coordinates": [
     -2.75615,
     51.48347
    ]
   },
   "properties": {
    "stop_id": "POH",
    "name": "Portishead",
    "tiploc": "PRTSHD",
    "source": "OSM proposed:railway=station node 11845402921; CRS POH from the Darwin reference"
   }
  },
  {
   "type": "Feature",
   "geometry": {
    "type": "Point",
    "coordinates": [
     -2.68691,
     51.48127
    ]
   },
   "properties": {
    "stop_id": "PIA",
    "name": "Pill",
    "tiploc": "PILL",
    "source": "OSM proposed:railway=station node 11845402922; CRS PIA from the Darwin reference"
   }
  },
  {
   "type": "Feature",
   "geometry": {
    "type": "Point",
    "coordinates": [
     -2.607742,
     51.433319
    ]
   },
   "properties": {
    "stop_id": "PSN",
    "name": "Parson Street",
    "tiploc": "PARSNST",
    "existing": true
   }
  },
  {
   "type": "Feature",
   "geometry": {
    "type": "Point",
    "coordinates": [
     -2.594149,
     51.440088
    ]
   },
   "properties": {
    "stop_id": "BMT",
    "name": "Bedminster",
    "tiploc": "BDMNSTR",
    "existing": true
   }
  },
  {
   "type": "Feature",
   "geometry": {
    "type": "Point",
    "coordinates": [
     -2.581315,
     51.449144
    ]
   },
   "properties": {
    "stop_id": "BRI",
    "name": "Bristol Temple Meads",
    "tiploc": "BRSTLTM",
    "existing": true
   }
  }
 ]
}